{"type":"Feature","properties":{"MUN":"AVON-BY-THE-SEA BORO","COUNTY":"MONMOUTH","MUN_LABEL":"Avon-by-the-Sea Borough","MUN_TYPE":"Borough","NAME":"Avon-by-the-Sea Borough","GNIS_NAME":"Borough of Avon-by-the-Sea"},"geometry":{"type":"Polygon","coordinates":[[[-74.0069592,40.1955352],[-74.0070172,40.1951083],[-74.0069314,40.1950797],[-74.0069985,40.1949801],[-74.0070311,40.194888],[-74.0070317,40.1948013],[-74.0070251,40.194692],[-74.0069938,40.1946146],[-74.0069599,40.1945429],[-74.0069467,40.1944967],[-74.0069642,40.1944535],[-74.0070063,40.1944178],[-74.0071173,40.1943411],[-74.0072039,40.1942604],[-74.0072734,40.1941684],[-74.0073333,40.1940349],[-74.0074305,40.1938432],[-74.0075408,40.1935272],[-74.0076892,40.193055],[-74.007753,40.1927143],[-74.0077853,40.1925025],[-74.0077936,40.1923745],[-74.0077848,40.1922313],[-74.0077513,40.1921124],[-74.0077274,40.1920181],[-74.0077326,40.1919692],[-74.0077649,40.1919185],[-74.007817,40.1918546],[-74.0079498,40.1916659],[-74.008099,40.1914047],[-74.0082397,40.1909814],[-74.0082923,40.1906661],[-74.0083026,40.1902574],[-74.0082764,40.1901423],[-74.0082388,40.1900753],[-74.0082149,40.1899923],[-74.0082154,40.1899207],[-74.0082479,40.1898436],[-74.0083026,40.1897516],[-74.0084224,40.1894883],[-74.0085708,40.189181],[-74.0086999,40.1888189],[-74.0087381,40.1886288],[-74.0087439,40.1885007],[-74.0087156,40.1883386],[-74.0086747,40.1882197],[-74.0085994,40.1880989],[-74.0085239,40.1880194],[-74.0084652,40.1879758],[-74.0083967,40.1879398],[-74.008256,40.1878742],[-74.0081971,40.1878551],[-74.00818,40.1878418],[-74.0081753,40.1878192],[-74.0081757,40.1877627],[-74.0081722,40.1877401],[-74.008164,40.1876873],[-74.0081496,40.1876326],[-74.00813,40.1876101],[-74.0081082,40.1875853],[-74.0080691,40.1875625],[-74.0080127,40.1875454],[-74.0079441,40.1875206],[-74.0079188,40.18751],[-74.0078711,40.1874858],[-74.00785,40.1874707],[-74.0078452,40.1874557],[-74.0075903,40.1870041],[-74.007849,40.1870433],[-74.0086113,40.1872001],[-74.0093494,40.1873516],[-74.0097427,40.1874169],[-74.0100765,40.1874811],[-74.0102289,40.1875104],[-74.0103768,40.1875323],[-74.0106585,40.1875496],[-74.0109403,40.1875427],[-74.011118,40.1875115],[-74.0111241,40.1875106],[-74.0112254,40.1874684],[-74.0113153,40.1874452],[-74.0117056,40.1873834],[-74.0119658,40.1873483],[-74.0124503,40.1873322],[-74.0128402,40.1873338],[-74.01323,40.1873627],[-74.0136786,40.1874098],[-74.0138868,40.1874459],[-74.0139921,40.1874757],[-74.0140776,40.1875111],[-74.0141863,40.1875324],[-74.0146032,40.1876062],[-74.01501,40.1876479],[-74.0154272,40.1876897],[-74.0160948,40.1877325],[-74.0167522,40.1877593],[-74.0175768,40.1877387],[-74.0182454,40.1876614],[-74.0189351,40.1875362],[-74.0190493,40.1875117],[-74.0192046,40.1874538],[-74.0193327,40.1873995],[-74.0197574,40.1872203],[-74.020024,40.1870647],[-74.0203068,40.186932],[-74.0211518,40.1865157],[-74.0212172,40.1864777],[-74.0221535,40.1860416],[-74.023127,40.1855982],[-74.0235927,40.1853947],[-74.0238224,40.1853226],[-74.0243403,40.1851242],[-74.02491,40.1849328],[-74.0254547,40.1847312],[-74.02558,40.1846906],[-74.0257052,40.1846637],[-74.0258303,40.1846505],[-74.0259434,40.1846464],[-74.0259549,40.1846477],[-74.0257055,40.1853338],[-74.0240309,40.1899417],[-74.0242393,40.1899817],[-74.0241365,40.1902703],[-74.0235771,40.1918243],[-74.0228291,40.1930643],[-74.0212629,40.1974973],[-74.0209989,40.1974441],[-74.0209784,40.1974319],[-74.0209591,40.1974186],[-74.0209413,40.1974042],[-74.020925,40.1973887],[-74.0209103,40.1973723],[-74.0208974,40.1973551],[-74.0208863,40.1973372],[-74.020877,40.1973186],[-74.0208697,40.1972996],[-74.0208643,40.1972802],[-74.0208609,40.1972605],[-74.0208596,40.1972407],[-74.0208546,40.1971797],[-74.0208474,40.1971188],[-74.0208381,40.1970581],[-74.0208267,40.1969976],[-74.0208132,40.1969374],[-74.0207976,40.1968775],[-74.0207799,40.1968179],[-74.0207602,40.1967586],[-74.0207384,40.1966999],[-74.0207145,40.1966415],[-74.0207031,40.1966211],[-74.0206899,40.1966013],[-74.0206748,40.1965823],[-74.020658,40.1965642],[-74.0206395,40.196547],[-74.0206194,40.1965309],[-74.0205979,40.196516],[-74.0205751,40.1965022],[-74.020551,40.1964897],[-74.0205258,40.1964786],[-74.0204997,40.1964689],[-74.0204727,40.1964606],[-74.0201971,40.1963304],[-74.0199227,40.1961988],[-74.0196493,40.1960659],[-74.0193771,40.1959316],[-74.0191061,40.195796],[-74.0188362,40.195659],[-74.0186574,40.1955515],[-74.0184776,40.195445],[-74.0182967,40.1953395],[-74.0182344,40.1953137],[-74.0181712,40.1952892],[-74.0181071,40.1952662],[-74.0180421,40.1952446],[-74.0179763,40.1952245],[-74.0179098,40.1952058],[-74.0178426,40.1951886],[-74.0177748,40.1951729],[-74.0177064,40.1951588],[-74.0176375,40.1951461],[-74.0175682,40.195135],[-74.0174984,40.1951254],[-74.0174284,40.1951173],[-74.017358,40.1951108],[-74.0172875,40.1951059],[-74.0172167,40.1951026],[-74.0171459,40.1951008],[-74.0170751,40.1951006],[-74.0170042,40.1951019],[-74.0169335,40.1951048],[-74.0166901,40.1951432],[-74.0164464,40.1951801],[-74.0162022,40.1952153],[-74.0159576,40.1952489],[-74.0157127,40.1952809],[-74.0154675,40.1953113],[-74.0152218,40.1953401],[-74.0149759,40.1953672],[-74.0147297,40.1953928],[-74.0144832,40.1954167],[-74.0142365,40.1954391],[-74.0139895,40.1954598],[-74.0137422,40.1954789],[-74.0134948,40.1954964],[-74.0132472,40.1955122],[-74.0129994,40.1955264],[-74.0127515,40.195539],[-74.0125034,40.19555],[-74.0122553,40.1955593],[-74.012007,40.1955671],[-74.0117586,40.1955732],[-74.0115102,40.1955776],[-74.0112618,40.1955805],[-74.0110133,40.1955817],[-74.0107648,40.1955812],[-74.0105164,40.1955792],[-74.0102679,40.1955755],[-74.0100195,40.1955702],[-74.0097712,40.1955632],[-74.009523,40.1955547],[-74.0069592,40.1955352]]]}}
